CCSDS_OMM_VERS = 2.0
CREATION_DATE  = 
ORIGINATOR     = 

OBJECT_NAME    = SL-4 R/B
OBJECT_ID      = 2014-021B
CENTER_NAME    = EARTH
REF_FRAME      = TEME
TIME_SYSTEM    = UTC
MEAN_ELEMENT_THEORY = SGP/SGP4

EPOCH          = 2026-02-04T12:05:12.674688
MEAN_MOTION    = 15.38124126
ECCENTRICITY   = .0098997
INCLINATION    = 51.6068
RA_OF_ASC_NODE = 139.0378
ARG_OF_PERICENTER = 342.0358
MEAN_ANOMALY   = 17.7136

EPHEMERIS_TYPE = 0
CLASSIFICATION_TYPE = U
NORAD_CAT_ID   = 39679
ELEMENT_SET_NO = 999
REV_AT_EPOCH   = 65116
BSTAR          = .29664E-3
MEAN_MOTION_DOT = .12956E-3
MEAN_MOTION_DDOT = 0

CCSDS_OMM_VERS = 2.0
CREATION_DATE  = 
ORIGINATOR     = 

OBJECT_NAME    = ALOS-2
OBJECT_ID      = 2014-029A
CENTER_NAME    = EARTH
REF_FRAME      = TEME
TIME_SYSTEM    = UTC
MEAN_ELEMENT_THEORY = SGP/SGP4

EPOCH          = 2026-02-04T12:16:04.305216
MEAN_MOTION    = 14.79481024
ECCENTRICITY   = .000148
INCLINATION    = 97.9224
RA_OF_ASC_NODE = 134.5860
ARG_OF_PERICENTER = 97.0303
MEAN_ANOMALY   = 263.1076

EPHEMERIS_TYPE = 0
CLASSIFICATION_TYPE = U
NORAD_CAT_ID   = 39766
ELEMENT_SET_NO = 999
REV_AT_EPOCH   = 63196
BSTAR          = .17674E-3
MEAN_MOTION_DOT = .1269E-4
MEAN_MOTION_DDOT = 0

CCSDS_OMM_VERS = 2.0
CREATION_DATE  = 
ORIGINATOR     = 

OBJECT_NAME    = YAOGAN-29
OBJECT_ID      = 2015-069A
CENTER_NAME    = EARTH
REF_FRAME      = TEME
TIME_SYSTEM    = UTC
MEAN_ELEMENT_THEORY = SGP/SGP4

EPOCH          = 2026-02-04T12:43:35.298624
MEAN_MOTION    = 14.82956284
ECCENTRICITY   = .0002897
INCLINATION    = 98.0173
RA_OF_ASC_NODE = 63.8658
ARG_OF_PERICENTER = 90.8285
MEAN_ANOMALY   = 269.3260

EPHEMERIS_TYPE = 0
CLASSIFICATION_TYPE = U
NORAD_CAT_ID   = 41038
ELEMENT_SET_NO = 999
REV_AT_EPOCH   = 55096
BSTAR          = .49223E-4
MEAN_MOTION_DOT = .345E-5
MEAN_MOTION_DDOT = 0

CCSDS_OMM_VERS = 2.0
CREATION_DATE  = 
ORIGINATOR     = 

OBJECT_NAME    = ASTRO-H (HITOMI)
OBJECT_ID      = 2016-012A
CENTER_NAME    = EARTH
REF_FRAME      = TEME
TIME_SYSTEM    = UTC
MEAN_ELEMENT_THEORY = SGP/SGP4

EPOCH          = 2026-02-04T12:20:02.745024
MEAN_MOTION    = 15.09756706
ECCENTRICITY   = .0009889
INCLINATION    = 30.9979
RA_OF_ASC_NODE = 210.5983
ARG_OF_PERICENTER = 358.9418
MEAN_ANOMALY   = 1.1198

EPHEMERIS_TYPE = 0
CLASSIFICATION_TYPE = U
NORAD_CAT_ID   = 41337
ELEMENT_SET_NO = 999
REV_AT_EPOCH   = 54721
BSTAR          = .22607E-3
MEAN_MOTION_DOT = .3837E-4
MEAN_MOTION_DDOT = 0

CCSDS_OMM_VERS = 2.0
CREATION_DATE  = 
ORIGINATOR     = 

OBJECT_NAME    = HXMT (HUIYAN)
OBJECT_ID      = 2017-034A
CENTER_NAME    = EARTH
REF_FRAME      = TEME
TIME_SYSTEM    = UTC
MEAN_ELEMENT_THEORY = SGP/SGP4

EPOCH          = 2026-02-04T12:46:24.559680
MEAN_MOTION    = 15.17015689
ECCENTRICITY   = .0031353
INCLINATION    = 43.0128
RA_OF_ASC_NODE = 200.9515
ARG_OF_PERICENTER = 22.6848
MEAN_ANOMALY   = 337.5378

EPHEMERIS_TYPE = 0
CLASSIFICATION_TYPE = U
NORAD_CAT_ID   = 42758
ELEMENT_SET_NO = 999
REV_AT_EPOCH   = 47750
BSTAR          = .32464E-3
MEAN_MOTION_DOT = .6379E-4
MEAN_MOTION_DDOT = 0

CCSDS_OMM_VERS = 2.0
CREATION_DATE  = 
ORIGINATOR     = 

OBJECT_NAME    = CZ-2C R/B
OBJECT_ID      = 2018-054D
CENTER_NAME    = EARTH
REF_FRAME      = TEME
TIME_SYSTEM    = UTC
MEAN_ELEMENT_THEORY = SGP/SGP4

EPOCH          = 2026-02-04T10:34:46.854048
MEAN_MOTION    = 15.93265610
ECCENTRICITY   = .0013503
INCLINATION    = 35.1296
RA_OF_ASC_NODE = 172.5170
ARG_OF_PERICENTER = 340.0723
MEAN_ANOMALY   = 19.9487

EPHEMERIS_TYPE = 0
CLASSIFICATION_TYPE = U
NORAD_CAT_ID   = 43521
ELEMENT_SET_NO = 999
REV_AT_EPOCH   = 42356
BSTAR          = .7367E-3
MEAN_MOTION_DOT = .27563E-2
MEAN_MOTION_DDOT = .29411E-4

CCSDS_OMM_VERS = 2.0
CREATION_DATE  = 
ORIGINATOR     = 

OBJECT_NAME    = SAOCOM 1A
OBJECT_ID      = 2018-076A
CENTER_NAME    = EARTH
REF_FRAME      = TEME
TIME_SYSTEM    = UTC
MEAN_ELEMENT_THEORY = SGP/SGP4

EPOCH          = 2026-02-04T11:28:00.002784
MEAN_MOTION    = 14.82152811
ECCENTRICITY   = .0001381
INCLINATION    = 97.8859
RA_OF_ASC_NODE = 224.1216
ARG_OF_PERICENTER = 87.6746
MEAN_ANOMALY   = 272.4625

EPHEMERIS_TYPE = 0
CLASSIFICATION_TYPE = U
NORAD_CAT_ID   = 43641
ELEMENT_SET_NO = 999
REV_AT_EPOCH   = 39644
BSTAR          = .10752E-3
MEAN_MOTION_DOT = .804E-5
MEAN_MOTION_DDOT = 0

CCSDS_OMM_VERS = 2.0
CREATION_DATE  = 
ORIGINATOR     = 

OBJECT_NAME    = H-2A R/B
OBJECT_ID      = 2018-084L
CENTER_NAME    = EARTH
REF_FRAME      = TEME
TIME_SYSTEM    = UTC
MEAN_ELEMENT_THEORY = SGP/SGP4

EPOCH          = 2026-02-04T11:28:26.029920
MEAN_MOTION    = 15.39863908
ECCENTRICITY   = .002625
INCLINATION    = 98.8755
RA_OF_ASC_NODE = 245.8049
ARG_OF_PERICENTER = 137.1314
MEAN_ANOMALY   = 223.1980

EPHEMERIS_TYPE = 0
CLASSIFICATION_TYPE = U
NORAD_CAT_ID   = 43682
ELEMENT_SET_NO = 999
REV_AT_EPOCH   = 40066
BSTAR          = .5475E-3
MEAN_MOTION_DOT = .21937E-3
MEAN_MOTION_DDOT = 0

CCSDS_OMM_VERS = 2.0
CREATION_DATE  = 
ORIGINATOR     = 

OBJECT_NAME    = SAOCOM 1B
OBJECT_ID      = 2020-059A
CENTER_NAME    = EARTH
REF_FRAME      = TEME
TIME_SYSTEM    = UTC
MEAN_ELEMENT_THEORY = SGP/SGP4

EPOCH          = 2026-02-04T12:13:00.570432
MEAN_MOTION    = 14.82158022
ECCENTRICITY   = .0001335
INCLINATION    = 97.8858
RA_OF_ASC_NODE = 223.2509
ARG_OF_PERICENTER = 83.6328
MEAN_ANOMALY   = 276.5037

EPHEMERIS_TYPE = 0
CLASSIFICATION_TYPE = U
NORAD_CAT_ID   = 46265
ELEMENT_SET_NO = 999
REV_AT_EPOCH   = 29383
BSTAR          = .24717E-4
MEAN_MOTION_DOT = .145E-5
MEAN_MOTION_DDOT = 0

CCSDS_OMM_VERS = 2.0
CREATION_DATE  = 
ORIGINATOR     = 

OBJECT_NAME    = CSS (TIANHE)
OBJECT_ID      = 2021-035A
CENTER_NAME    = EARTH
REF_FRAME      = TEME
TIME_SYSTEM    = UTC
MEAN_ELEMENT_THEORY = SGP/SGP4

EPOCH          = 2026-02-04T11:42:31.874688
MEAN_MOTION    = 15.59177353
ECCENTRICITY   = .0005892
INCLINATION    = 41.4675
RA_OF_ASC_NODE = 49.9559
ARG_OF_PERICENTER = 357.7325
MEAN_ANOMALY   = 2.3485

EPHEMERIS_TYPE = 0
CLASSIFICATION_TYPE = U
NORAD_CAT_ID   = 48274
ELEMENT_SET_NO = 999
REV_AT_EPOCH   = 27242
BSTAR          = .20945E-3
MEAN_MOTION_DOT = .16594E-3
MEAN_MOTION_DDOT = 0

CCSDS_OMM_VERS = 2.0
CREATION_DATE  = 
ORIGINATOR     = 

OBJECT_NAME    = COSMOS 2550
OBJECT_ID      = 2021-056A
CENTER_NAME    = EARTH
REF_FRAME      = TEME
TIME_SYSTEM    = UTC
MEAN_ELEMENT_THEORY = SGP/SGP4

EPOCH          = 2026-01-26T03:10:39.828288
MEAN_MOTION    = 15.33840202
ECCENTRICITY   = .00083094
INCLINATION    = 67.1441
RA_OF_ASC_NODE = 169.6578
ARG_OF_PERICENTER = 269.8947
MEAN_ANOMALY   = 90.1255

EPHEMERIS_TYPE = 0
CLASSIFICATION_TYPE = U
NORAD_CAT_ID   = 48865
ELEMENT_SET_NO = 999
REV_AT_EPOCH   = 25693
BSTAR          = .322698E-6
MEAN_MOTION_DOT = -.181E-5
MEAN_MOTION_DDOT = 0

CCSDS_OMM_VERS = 2.0
CREATION_DATE  = 
ORIGINATOR     = 

OBJECT_NAME    = CZ-2C R/B
OBJECT_ID      = 2022-058K
CENTER_NAME    = EARTH
REF_FRAME      = TEME
TIME_SYSTEM    = UTC
MEAN_ELEMENT_THEORY = SGP/SGP4

EPOCH          = 2026-02-04T10:34:05.786400
MEAN_MOTION    = 15.51883782
ECCENTRICITY   = .0042366
INCLINATION    = 50.1894
RA_OF_ASC_NODE = 129.0179
ARG_OF_PERICENTER = 59.8226
MEAN_ANOMALY   = 300.6930

EPHEMERIS_TYPE = 0
CLASSIFICATION_TYPE = U
NORAD_CAT_ID   = 52794
ELEMENT_SET_NO = 999
REV_AT_EPOCH   = 20496
BSTAR          = .46606E-3
MEAN_MOTION_DOT = .29193E-3
MEAN_MOTION_DDOT = 0

