SL-4 R/B                
1 39679U 14021B   26035.50361892  .00012956  00000+0  29664-3 0  9994
2 39679  51.6068 139.0378 0098997 342.0358  17.7136 15.38124126651167
ALOS-2                  
1 39766U 14029A   26035.51116094  .00001269  00000+0  17674-3 0  9995
2 39766  97.9224 134.5860 0001480  97.0303 263.1076 14.79481024631968
YAOGAN-29               
1 41038U 15069A   26035.53026966  .00000345  00000+0  49223-4 0  9995
2 41038  98.0173  63.8658 0002897  90.8285 269.3260 14.82956284550962
ASTRO-H (HITOMI)        
1 41337U 16012A   26035.51392066  .00003837  00000+0  22607-3 0  9996
2 41337  30.9979 210.5983 0009889 358.9418   1.1198 15.09756706547212
HXMT (HUIYAN)           
1 42758U 17034A   26035.53222870  .00006379  00000+0  32464-3 0  9992
2 42758  43.0128 200.9515 0031353  22.6848 337.5378 15.17015689477505
CZ-2C R/B               
1 43521U 18054D   26035.44082007  .00275630  29411-4  73670-3 0  9994
2 43521  35.1296 172.5170 0013503 340.0723  19.9487 15.93265610423563
SAOCOM 1A               
1 43641U 18076A   26035.47777781  .00000804  00000+0  10752-3 0  9993
2 43641  97.8859 224.1216 0001381  87.6746 272.4625 14.82152811396442
H-2A R/B                
1 43682U 18084L   26035.47807905  .00021937  00000+0  54750-3 0  9995
2 43682  98.8755 245.8049 0026250 137.1314 223.1980 15.39863908400667
SAOCOM 1B               
1 46265U 20059A   26035.50903438  .00000145  00000+0  24717-4 0  9991
2 46265  97.8858 223.2509 0001335  83.6328 276.5037 14.82158022293833
CSS (TIANHE)            
1 48274U 21035A   26035.48786892  .00016594  00000+0  20945-3 0  9991
2 48274  41.4675  49.9559 0005892 357.7325   2.3485 15.59177353272426
COSMOS 2550             
1 48865U 21056A   26026.13240542 -.00000181  00000+0  32270-6 0  9992
2 48865  67.1441 169.6578 0008309 269.8947  90.1255 15.33840202256938
CZ-2C R/B               
1 52794U 22058K   26035.44034475  .00029193  00000+0  46606-3 0  9999
2 52794  50.1894 129.0179 0042366  59.8226 300.6930 15.51883782204968
